{"fetched_at":"2026-03-29T02:12:04Z","count":15717,"tles":[{"name":"KONDOR-FKA NO. 2","line1":"1 62138U 24223A   26087.52037247  .00005117  00000+0  24240-3 0  9994","line2":"2 62138  97.4343 292.1308 0001705  90.6976 269.4455 15.19763242 73451","category":"Other"}]}